STARLINK-4351
1 53193U 22084E   26090.42915680  .00000209  00000+0  19065-4 0  9994
2 53193  97.6025 151.5283 0001805  85.8136 274.3297 15.04827433203592
STARLINK-4368
1 53234U 22084AX  26090.83335647 -.00040600  00000+0 -28861-2 0  9997
2 53234  97.6031 151.9110 0001924  75.7494 263.6267 15.04857444  5510
STARLINK-4374
1 53652U 22105E   26090.61274541  .00000513  00000+0  40581-4 0  9998
2 53652  97.6044 331.7099 0001928  99.4118 260.7326 15.04831217196528
STARLINK-4440
1 53671U 22105Z   26090.83335647 -.00038266  00000+0 -27182-2 0  9996
2 53671  97.6014 331.8973 0002002  86.3213  88.5882 15.04869769  5663
